OBJECT_NAME,OBJECT_ID,EPOCH,MEAN_MOTION,ECCENTRICITY,INCLINATION,RA_OF_ASC_NODE,ARG_OF_PERICENTER,MEAN_ANOMALY,EPHEMERIS_TYPE,CLASSIFICATION_TYPE,NORAD_CAT_ID,ELEMENT_SET_NO,REV_AT_EPOCH,BSTAR,MEAN_MOTION_DOT,MEAN_MOTION_DDOT
STARLINK-38001,2026-154K,2026-07-10T06:00:02.000160,16.01791177,.00007515,53.1597,318.1486,69.0249,11.4545,0,U,69828,999,187,-.25568437E-2,-.1484292E-1,.69506344E-3
STARLINK-37622,2026-154L,2026-07-10T06:00:02.000160,16.01900121,.00007899,53.1597,318.1452,68.9918,13.1082,0,U,69829,999,187,-.25318977E-2,-.1479294E-1,.69161602E-3
STARLINK-37621,2026-154M,2026-07-10T06:00:02.000160,16.02003376,.00008022,53.1597,318.1423,68.2650,15.2212,0,U,69830,999,187,-.25047209E-2,-.1472401E-1,.686508E-3
STARLINK-37918,2026-154N,2026-07-10T06:00:02.000160,16.02105001,.0000857,53.1596,318.1395,68.8701,15.9774,0,U,69831,999,187,-.24801594E-2,-.1466776E-1,.68248185E-3
STARLINK-37887,2026-154P,2026-07-10T06:00:02.000160,16.02202158,.00008405,53.1596,318.1368,67.1002,19.0928,0,U,69832,999,187,-.24523634E-2,-.1458755E-1,.67638942E-3
STARLINK-37624,2026-154Q,2026-07-10T06:00:02.000160,16.02327249,.00008077,53.1595,318.1328,67.6266,20.4807,0,U,69833,999,187,-.24462533E-2,-.1465781E-1,.68333881E-3
STARLINK-37769,2026-154R,2026-07-10T06:00:02.000160,16.02439132,.00008225,53.1595,318.1292,66.6411,23.2312,0,U,69834,999,187,-.24237317E-2,-.1461957E-1,.68093099E-3
STARLINK-37247,2026-154S,2026-07-10T06:00:02.000160,16.02547830,.00008766,53.1595,318.1258,64.6744,26.8745,0,U,69835,999,197,-.24014668E-2,-.1457923E-1,.67832027E-3
STARLINK-37569,2026-154T,2026-07-10T06:00:02.000160,16.02645802,.00007583,53.1594,318.1232,64.9166,27.9514,0,U,69836,999,187,-.23778221E-2,-.1452023E-1,.67404013E-3
STARLINK-37587,2026-154U,2026-07-10T06:00:02.000160,16.02774827,.00008541,53.1594,318.1188,61.7165,33.2216,0,U,69837,999,184,-.23785518E-2,-.1463472E-1,.68482325E-3
STARLINK-37590,2026-154V,2026-07-10T06:00:02.000160,16.02877260,.00008738,53.1594,318.1156,62.8148,33.6762,0,U,69838,999,171,-.23561238E-2,-.1458582E-1,.6814221E-3
STARLINK-37589,2026-154W,2026-07-10T06:00:02.000160,16.02993567,.00007737,53.1593,318.1122,61.0378,37.2022,0,U,69839,999,184,-.2343487E-2,-.1460776E-1,.6842092E-3
STARLINK-37487,2026-154X,2026-07-10T06:00:02.000160,16.07524929,.0000713,53.1593,318.0274,53.4980,85.0960,0,U,69840,999,184,-.12445177E-2,-.1029218E-1,.38124125E-3
STARLINK-37433,2026-154Y,2026-07-10T06:00:02.000160,16.07794154,.000073,53.1593,318.0203,55.3502,86.6440,0,U,69841,999,197,-.12382927E-2,-.1041582E-1,.3908393E-3
STARLINK-37588,2026-154Z,2026-07-10T06:00:02.000160,16.08088375,.00006999,53.1592,318.0128,57.7195,87.8987,0,U,69842,999,187,-.12417981E-2,-.106403E-1,.40768024E-3
STARLINK-37579,2026-154AA,2026-07-10T06:00:02.000160,16.08557512,.00007157,53.1592,318.0029,60.6974,89.5998,0,U,69843,999,187,-.13039537E-2,-.1150262E-1,.47229979E-3
STARLINK-37584,2026-154AB,2026-07-10T06:00:02.000160,16.08780355,.00006869,53.1593,317.9963,54.6516,98.6491,0,U,69844,999,187,-.13221281E-2,-.1182724E-1,.49818085E-3
STARLINK-37606,2026-154AC,2026-07-10T06:00:02.000160,16.09085999,.00007594,53.1591,317.9892,65.9445,90.8622,0,U,69845,999,187,-.13623E-2,-.1242181E-1,.5468126E-3
STARLINK-37603,2026-154AD,2026-07-10T06:00:02.000160,16.09478248,.00007592,53.1592,317.9803,58.9992,101.9325,0,U,69846,999,187,-.14159669E-2,-.1323305E-1,.61685416E-3
STARLINK-37595,2026-154AE,2026-07-10T06:00:02.000160,16.09686717,.00007412,53.1590,317.9734,59.0287,105.0591,0,U,69847,999,187,-.1424683E-2,-.1349327E-1,.64095091E-3
