STARLINK-38001          
1 69828U 26154K   26191.25002315 -.01484292  69506-3 -25568-2 0  9997
2 69828  53.1597 318.1486 0000751  69.0249  11.4545 16.01791177  1875
STARLINK-37622          
1 69829U 26154L   26191.25002315 -.01479294  69162-3 -25319-2 0  9996
2 69829  53.1597 318.1452 0000789  68.9918  13.1082 16.01900121  1877
STARLINK-37621          
1 69830U 26154M   26191.25002315 -.01472401  68651-3 -25047-2 0  9991
2 69830  53.1597 318.1423 0000802  68.2650  15.2212 16.02003376  1874
STARLINK-37918          
1 69831U 26154N   26191.25002315 -.01466776  68248-3 -24802-2 0  9990
2 69831  53.1596 318.1395 0000857  68.8701  15.9774 16.02105001  1873
STARLINK-37887          
1 69832U 26154P   26191.25002315 -.01458755  67639-3 -24524-2 0  9993
2 69832  53.1596 318.1368 0000840  67.1002  19.0928 16.02202158  1879
STARLINK-37624          
1 69833U 26154Q   26191.25002315 -.01465781  68334-3 -24463-2 0  9996
2 69833  53.1595 318.1328 0000807  67.6266  20.4807 16.02327249  1876
STARLINK-37769          
1 69834U 26154R   26191.25002315 -.01461957  68093-3 -24237-2 0  9999
2 69834  53.1595 318.1292 0000822  66.6411  23.2312 16.02439132  1872
STARLINK-37247          
1 69835U 26154S   26191.25002315 -.01457923  67832-3 -24015-2 0  9992
2 69835  53.1595 318.1258 0000876  64.6744  26.8745 16.02547830  1976
STARLINK-37569          
1 69836U 26154T   26191.25002315 -.01452023  67404-3 -23778-2 0  9999
2 69836  53.1594 318.1232 0000758  64.9166  27.9514 16.02645802  1871
STARLINK-37587          
1 69837U 26154U   26191.25002315 -.01463472  68482-3 -23786-2 0  9996
2 69837  53.1594 318.1188 0000854  61.7165  33.2216 16.02774827  1849
STARLINK-37590          
1 69838U 26154V   26191.25002315 -.01458582  68142-3 -23561-2 0  9997
2 69838  53.1594 318.1156 0000873  62.8148  33.6762 16.02877260  1710
STARLINK-37589          
1 69839U 26154W   26191.25002315 -.01460776  68421-3 -23435-2 0  9996
2 69839  53.1593 318.1122 0000773  61.0378  37.2022 16.02993567  1840
STARLINK-37487          
1 69840U 26154X   26191.25002315 -.01029218  38124-3 -12445-2 0  9996
2 69840  53.1593 318.0274 0000713  53.4980  85.0960 16.07524929  1846
STARLINK-37433          
1 69841U 26154Y   26191.25002315 -.01041582  39084-3 -12383-2 0  9992
2 69841  53.1593 318.0203 0000730  55.3502  86.6440 16.07794154  1972
STARLINK-37588          
1 69842U 26154Z   26191.25002315 -.01064030  40768-3 -12418-2 0  9996
2 69842  53.1592 318.0128 0000699  57.7195  87.8987 16.08088375  1876
STARLINK-37579          
1 69843U 26154AA  26191.25002315 -.01150262  47230-3 -13040-2 0  9993
2 69843  53.1592 318.0029 0000715  60.6974  89.5998 16.08557512  1879
STARLINK-37584          
1 69844U 26154AB  26191.25002315 -.01182724  49818-3 -13221-2 0  9997
2 69844  53.1593 317.9963 0000686  54.6516  98.6491 16.08780355  1870
STARLINK-37606          
1 69845U 26154AC  26191.25002315 -.01242181  54681-3 -13623-2 0  9992
2 69845  53.1591 317.9892 0000759  65.9445  90.8622 16.09085999  1870
STARLINK-37603          
1 69846U 26154AD  26191.25002315 -.01323305  61685-3 -14160-2 0  9990
2 69846  53.1592 317.9803 0000759  58.9992 101.9325 16.09478248  1870
STARLINK-37595          
1 69847U 26154AE  26191.25002315 -.01349327  64095-3 -14247-2 0  9997
2 69847  53.1590 317.9734 0000741  59.0287 105.0591 16.09686717  1874
